STARLINK-34073          
1 64606U 25137N   25193.58335648 -.00417814  00000+0 -29572-2 0  9995
2 64606  53.1579  24.9821 0001136  79.0224 156.1963 15.74458706  3680
STARLINK-34532          
1 64607U 25137P   25193.58335648 -.00295923  00000+0 -20719-2 0  9995
2 64607  53.1581  24.9779 0001103  81.4603 155.7273 15.74365931  3796
STARLINK-34519          
1 64608U 25137Q   25193.58335648 -.00149596  00000+0 -10317-2 0  9993
2 64608  53.1583  24.9739 0001008  69.9246 169.2299 15.74270248  3797
STARLINK-34513          
1 64609U 25137R   25193.58335648 -.00056887  00000+0 -38641-3 0  9995
2 64609  53.1583  24.9698 0000756  68.8202 172.2805 15.74209624  3899
STARLINK-34569          
1 64610U 25137S   25193.54051768 -.00335985  00000+0 -23411-2 0  9998
2 64610  53.1559  25.1774 0001025  49.9770 310.1339 15.74590444  3766
STARLINK-34494          
1 64611U 25137T   25193.54017551 -.00332741  00000+0 -23284-2 0  9996
2 64611  53.1561  25.1753 0001058  61.9946 298.1181 15.74483280  3761
STARLINK-34521          
1 64612U 25137U   25193.58335648 -.00076474  00000+0 -52198-3 0  9996
2 64612  53.1585  24.9577 0000989  80.6516 166.2029 15.74216525  3797
STARLINK-34500          
1 64613U 25137V   25193.58335648 -.00046197  00000+0 -31258-3 0  9990
2 64613  53.1587  24.9538 0000622  72.3262 176.4314 15.74210924  3895
STARLINK-34440          
1 64614U 25137W   25193.58335648 -.00082673  00000+0 -56487-3 0  9991
2 64614  53.1589  24.9503 0001162  94.3494 156.3342 15.74223717  3792
STARLINK-34469          
1 64615U 25137X   25193.58335648 -.00086538  00000+0 -59176-3 0  9994
2 64615  53.1589  24.9455 0000629 105.4747 147.1242 15.74224784  3793
STARLINK-34413          
1 64616U 25137Y   25193.58335648 -.00093424  00000+0 -63926-3 0  9995
2 64616  53.1587  24.9415 0000920  88.8384 165.6566 15.74240240  3893
STARLINK-34417          
1 64617U 25137Z   25193.58335648  .00080881  00000+0  44404-3 0  9997
2 64617  53.1558  24.8923 0000779  60.9337 217.6135 15.79094232  3899
STARLINK-34415          
1 64618U 25137AA  25193.58335648 -.00047091  00000+0 -31885-3 0  9995
2 64618  53.1593  24.9340 0000796 102.8815 155.4727 15.74202881  3790
STARLINK-34416          
1 64619U 25137AB  25193.53747313  .00113019  00000+0  76481-3 0  9990
2 64619  53.1573  25.1573 0001436  54.8822 305.2332 15.74214740  3767
STARLINK-34414          
1 64620U 25137AC  25193.53713463  .00170294  00000+0  11416-2 0  9995
2 64620  53.1569  25.1546 0001093  87.4812 272.6333 15.74231528  3765
HAWK-12C                
1 64621U 25138A   25193.48134656  .00002584  00000+0  14267-3 0  9996
2 64621  97.4329 197.7438 0013371 240.5679 119.4219 15.14744099  2386
HAWK-12B                
1 64622U 25138B   25192.95153547  .00002410  00000+0  13369-3 0  9998
2 64622  97.4366 197.2373 0012691 236.8519 123.1496 15.14654207  2308
HAWK-12A                
1 64623U 25138C   25193.54521774  .00002328  00000+0  12952-3 0  9991
2 64623  97.4355 197.8161 0013745 234.2448 125.7506 15.14566361  2394
KESTREL-0A              
1 64624U 25138D   25193.47303860  .00001447  00000+0  80195-4 0  9994
2 64624  97.4361 197.7599 0014877 226.5223 133.4773 15.15299547  2378
STARLINK-34464          
1 64664U 25139A   25193.58335648 -.02131539  00000+0 -19265-1 0  9997
2 64664  53.1593 167.2456 0000969  74.4232 276.6627 15.70755316  3460
STARLINK-34555          
1 64665U 25139B   25193.58335648 -.02130868  00000+0 -19258-1 0  9994
2 64665  53.1594 167.2413 0000992  75.7325 277.2700 15.70755115  3363
STARLINK-34390          
1 64666U 25139C   25193.58335648 -.02128875  00000+0 -19241-1 0  9992
2 64666  53.1593 167.2373 0000830  78.2955 276.6288 15.70752407  3529
STARLINK-34382          
1 64667U 25139D   25193.58335648 -.02131415  00000+0 -19267-1 0  9995
2 64667  53.1595 167.2333 0000810  76.2710 280.5704 15.70753068  3467
STARLINK-34395          
1 64668U 25139E   25193.58335648 -.02131489  00000+0 -19266-1 0  9996
2 64668  53.1595 167.2292 0000953  74.1066 284.6497 15.70753645  3466
STARLINK-34394          
1 64669U 25139F   25193.58335648 -.02130356  00000+0 -19255-1 0  9997
2 64669  53.1594 167.2258 0000959  74.0807 286.5931 15.70752653  3468
STARLINK-34287          
1 64670U 25139G   25193.58335648 -.02127569  00000+0 -19228-1 0  9991
2 64670  53.1593 167.2217 0000945  71.8775 290.7140 15.70750460  3461
STARLINK-34365          
1 64671U 25139H   25193.58335648 -.02098985  00000+0 -18956-1 0  9998
2 64671  53.1592 167.2177 0000882  75.2939 289.2380 15.70721472  3523
STARLINK-34442          
1 64672U 25139J   25193.58335648 -.02128272  00000+0 -19235-1 0  9993
2 64672  53.1594 167.2136 0000927  77.0479 289.3780 15.70751025  3465
STARLINK-34288          
1 64673U 25139K   25193.58335648 -.02127809  00000+0 -19232-1 0  9996
2 64673  53.1591 167.2095 0000889  86.0768 282.2696 15.70749221  3468
STARLINK-34539          
1 64674U 25139L   25193.58335648 -.02131768  00000+0 -19268-1 0  9995
2 64674  53.1592 167.2053 0000904  79.5801 290.6760 15.70755281  3364
STARLINK-34590          
1 64675U 25139M   25193.58335648 -.02129478  00000+0 -19247-1 0  9998
2 64675  53.1592 167.2012 0000884  73.5404 298.6354 15.70752115  3461
STARLINK-34573          
1 64676U 25139N   25193.58335648 -.02128835  00000+0 -19240-1 0  9998
2 64676  53.1594 167.1968 0000754  78.4698 295.6202 15.70753948  3462
STARLINK-34605          
1 64677U 25139P   25193.58335648 -.02128466  00000+0 -19237-1 0  9995
2 64677  53.1594 167.1930 0000851  74.3752 301.6335 15.70751880  3464
STARLINK-34525          
1 64678U 25139Q   25193.58335648 -.02131001  00000+0 -19261-1 0  9992
2 64678  53.1591 167.1891 0000923  79.7803 298.1447 15.70753896  3467
STARLINK-34489          
1 64679U 25139R   25193.58335648 -.02129847  00000+0 -19250-1 0  9996
2 64679  53.1592 167.1850 0000915  74.0234 305.8185 15.70752785  3462
STARLINK-34502          
1 64680U 25139S   25193.58335648 -.02127430  00000+0 -19225-1 0  9996
2 64680  53.1590 167.1811 0001015  63.2078 318.5494 15.70751576  3468
STARLINK-34553          
1 64681U 25139T   25193.58335648 -.02129924  00000+0 -19249-1 0  9993
2 64681  53.1591 167.1767 0000796  80.1280 303.5432 15.70756304  3468
STARLINK-34551          
1 64682U 25139U   25193.58335648 -.02129146  00000+0 -19241-1 0  9992
2 64682  53.1592 167.1734 0001056  57.8031 327.7861 15.70753317  3464
STARLINK-34550          
1 64683U 25139V   25193.58335648 -.02130766  00000+0 -19257-1 0  9990
2 64683  53.1593 167.1693 0001037  58.4668 329.0391 15.70754528  3460
STARLINK-34485          
1 64684U 25139W   25193.58335648 -.02130231  00000+0 -19253-1 0  9994
2 64684  53.1593 167.1653 0001027  66.2590 323.1670 15.70752731  3466
STARLINK-34253          
1 64685U 25139X   25193.58335648 -.02130905  00000+0 -19259-1 0  9999
2 64685  53.1591 167.1611 0001018  54.3094 337.0310 15.70754048  3464
STARLINK-34565          
1 64686U 25139Y   25193.58335648 -.02129745  00000+0 -19249-1 0  9999
2 64686  53.1594 167.1571 0001013  63.2084 330.0527 15.70751620  3462
STARLINK-34554          
1 64687U 25139Z   25193.58335648 -.02127940  00000+0 -19228-1 0  9992
2 64687  53.1594 167.1526 0001086  56.1459 339.0258 15.70753592  3460
STARLINK-34262          
1 64688U 25139AA  25193.58335648 -.02126595  00000+0 -19216-1 0  9995
2 64688  53.1589 167.1413 0001067  55.2826 345.6422 15.70751401  3527
STARLINK-34538          
1 64689U 25139AB  25193.58335648 -.02127510  00000+0 -19225-1 0  9994
2 64689  53.1591 167.1453 0000886  71.4398 327.5663 15.70754041  3469
STARLINK-34250          
1 64690U 25139AC  25193.58335648 -.02130378  00000+0 -19254-1 0  9994
2 64690  53.1594 167.1493 0000896  78.0854 319.0060 15.70754850  3464
2025-140A               
1 64691U 25140A   25193.60458896  .00000539  00000+0  91211-4 0  9998
2 64691  95.9832  38.2837 0011470 257.7821 102.2107 14.71654212  2109
ELECTRON KICK STAGE R/B 
1 64692U 25140B   25193.60083265  .00000898  00000+0  14738-3 0  9999
2 64692  95.9834  38.2880 0012573 250.7537 109.2315 14.72047111  2105
ELECTRON R/B            
1 64693U 25140C   25193.87308429  .09470421  10071-5  73728-3 0  9992
2 64693  95.9548  40.3667 0072754 170.5634 315.0871 16.28427099  2293
GOSAT-GW (IBUKI GW)     
1 64694U 25141A   25193.57747075  .00000497  00000+0  97165-4 0  9995
2 64694  98.0259 132.0540 0004156 113.8200 246.3441 14.66988312  2037
H-2A R/B                
1 64695U 25141B   25193.58189245  .00001146  00000+0  11960-3 0  9996
2 64695  98.0467 132.4772 0093811 219.6292 139.8043 14.88700617  2063
STARLINK-34497          
1 64696U 25142A   25193.62163609  .00059434  00000+0  43391-3 0  9995
2 64696  69.9990 211.2801 0003279 279.1265  80.9561 15.72952882  3396
STARLINK-34584          
1 64697U 25142B   25193.62130165  .00070891  00000+0  51695-3 0  9993
2 64697  69.9976 211.2778 0003111 270.2360  89.8481 15.72934924  3236
STARLINK-34535          
1 64698U 25142C   25193.55737202  .00125969  00000+0  91180-3 0  9991
2 64698  69.9968 211.4584 0003346 271.3515  88.7299 15.72922934  3210
STARLINK-34600          
1 64699U 25142D   25193.62062899  .00088501  00000+0  64418-3 0  9997
2 64699  69.9969 211.2765 0003062 270.4337  89.6509 15.72914778  3231
STARLINK-34560          
1 64700U 25142E   25193.55668872  .00151594  00000+0  10922-2 0  9998
2 64700  69.9971 211.4544 0003742 265.9045  94.1724 15.72952213  3184
STARLINK-34576          
1 64701U 25142F   25193.61995256  .00130452  00000+0  94391-3 0  9998
2 64701  69.9970 211.2731 0003348 274.6869  85.3946 15.72917547  3227
STARLINK-34322          
1 64702U 25142G   25193.61960873  .00043831  00000+0  32143-3 0  9997
2 64702  69.9972 211.2720 0003494 267.9611  92.1186 15.72921335  3390
STARLINK-34470          
1 64703U 25142H   25193.61927034  .00067258  00000+0  49092-3 0  9990
2 64703  69.9973 211.2705 0003690 269.1248  90.9527 15.72924398  3211
